FLOCK 3P-12             
1 41972U 17008AA  17193.14358314  .00001709  00000-0  76682-4 0  9999
2 41972  97.4943 254.4004 0010121 105.1021 255.1336 15.22539176 22252
FLOCK 3P-9              
1 41973U 17008AB  17193.27907457  .00003357  00000-0  14776-3 0  9998
2 41973  97.4939 254.5293 0010328 103.2172 257.0217 15.22511243 22270
FLOCK 3P-10             
1 41974U 17008AC  17193.14043118  .00003942  00000-0  17250-3 0  9990
2 41974  97.4940 254.4092 0010094 104.9442 255.2913 15.22599479 22132
FLOCK 3P-11             
1 41975U 17008AD  17193.15074080  .00003647  00000-0  16034-3 0  9995
2 41975  97.4939 254.3941 0010447 104.5926 255.6470 15.22492070 22140
FLOCK 3P-60             
1 41976U 17008AE  17193.26131814  .00002007  00000-0  89254-4 0  9991
2 41976  97.4942 254.5546 0010003 105.2993 254.9349 15.22635805 21521
FLOCK 3P-58             
1 41977U 17008AF  17193.14346173  .00003615  00000-0  15878-3 0  9991
2 41977  97.4940 254.4019 0010096 104.8058 255.4297 15.22529223 22337
FLOCK 3P-57             
1 41978U 17008AG  17193.27163195  .00003191  00000-0  14031-3 0  9996
2 41978  97.4940 254.5382 0010172 103.4441 256.7930 15.22586238 22199
FLOCK 3P-75             
1 41979U 17008AH  17193.20538488  .00003439  00000-0  15085-3 0  9996
2 41979  97.4960 254.5206 0010426 106.4503 253.7880 15.22607631 22339
FLOCK 3P-70             
1 41980U 17008AJ  17193.27082066  .00002678  00000-0  11822-3 0  9990
2 41980  97.4967 254.5876 0010310 105.6747 254.5628 15.22593203 22196
FLOCK 3P-73             
1 41981U 17008AK  17193.14352743  .00001675  00000-0  75255-4 0  9996
2 41981  97.4968 254.4512 0010529 106.7426 253.4967 15.22518764 22308
FLOCK 3P-88             
1 41982U 17008AL  17193.13653088  .00004102  00000-0  17921-3 0  9995
2 41982  97.4958 254.4551 0010410 106.6445 253.5935 15.22630438 21274
FLOCK 3P-85             
1 41983U 17008AM  17193.12439149  .00002332  00000-0  10321-3 0  9995
2 41983  97.4962 254.4742 0010307 109.4345 250.8006 15.22635335 22177
FLOCK 3P-79             
1 41984U 17008AN  17193.19087606  .00001235  00000-0  56120-4 0  9999
2 41984  97.4966 254.5381 0009914 109.1484 251.0827 15.22632534 22188
FLOCK 3P-86             
1 41985U 17008AP  17193.19157583  .00003122  00000-0  13712-3 0  9998
2 41985  97.4959 254.5347 0009951 108.3756 251.8563 15.22637147 22176
FLOCK 3P-36             
1 41986U 17008AQ  17193.12969326  .00002778  00000-0  12234-3 0  9992
2 41986  97.4944 254.4257 0009586 105.9728 254.2565 15.22648644 21651
FLOCK 3P-30             
1 41987U 17008AR  17193.25168704  .00001264  00000-0  57314-4 0  9996
2 41987  97.4949 254.5706 0009543 107.3254 252.9027 15.22656019 22148
FLOCK 3P-34             
1 41988U 17008AS  17193.19796632  .00003434  00000-0  15045-3 0  9992
2 41988  97.4938 254.4825 0009774 104.2281 256.0041 15.22651915 21667
FLOCK 3P-35             
1 41989U 17008AT  17193.13410716  .00001268  00000-0  57566-4 0  9991
2 41989  97.4944 254.4139 0009875 104.3185 255.9148 15.22627113 21657
FLOCK 3P-33             
1 41990U 17008AU  17193.12856798  .00001178  00000-0  53662-4 0  9999
2 41990  97.4946 254.4236 0009509 105.4849 254.7438 15.22635439 21651
LEMUR-2-SATCHMO         
1 41991U 17008AV  17193.21284852  .00001290  00000-0  59182-4 0  9994
2 41991  97.4943 254.4639 0009631 106.5868 253.6427 15.22218216 21662
LEMUR-2-MIA-GRACE       
1 41992U 17008AW  17193.13457538  .00001854  00000-0  83178-4 0  9997
2 41992  97.4946 254.4180 0009575 107.3045 252.9240 15.22435035 21654
LEMUR-2-SMITA-SHARAD    
1 41993U 17008AX  17193.27178703  .00001564  00000-0  70869-4 0  9998
2 41993  97.4944 254.5395 0009592 106.8030 253.4259 15.22338526 21674
LEMUR-2-SPIRE-MINIONS   
1 41994U 17008AY  17193.13861127  .00001845  00000-0  82899-4 0  9991
2 41994  97.4944 254.4098 0009639 106.6752 253.5543 15.22395618 21655
LEMUR-2-RDEATON         
1 41995U 17008AZ  17193.13765513  .00001697  00000-0  76540-4 0  9995
2 41995  97.4945 254.4134 0010532 118.4199 241.8099 15.22366255 22335
LEMUR-2-NOGUECORREIG    
1 41996U 17008BA  17193.13079102  .00002119  00000-0  94513-4 0  9998
2 41996  97.4942 254.4237 0010492 118.8893 241.3397 15.22475748 21554
LEMUR-2-JOBANPUTRA      
1 41997U 17008BB  17193.12313490  .00001840  00000-0  82126-4 0  9996
2 41997  97.4946 254.4342 0010384 119.1911 241.0365 15.22611856 21645
LEMUR-2-TACHIKOMA       
1 41998U 17008BC  17193.13654043  .00001330  00000-0  60701-4 0  9999
2 41998  97.4944 254.4143 0010417 118.9596 241.2686 15.22330998 21571
BGUSAT                  
1 41999U 17008BD  17193.18372062  .00002643  00000-0  11642-3 0  9990
2 41999  97.4946 254.5124 0010456 120.2916 239.9356 15.22677644 21658
DIDO-2                  
1 42000U 17008BE  17193.20517488  .00001087  00000-0  50275-4 0  9997
2 42000  97.4943 254.4755 0010379 119.2299 240.9976 15.22259075 21669
FLOCK 3P-49             
1 42001U 17008BF  17193.18114714  .00001484  00000-0  66766-4 0  9993
2 42001  97.4947 254.5076 0010043 120.0483 240.1751 15.22659265 22180
FLOCK 3P-67             
1 42002U 17008BG  17193.18634851  .00001207  00000-0  54915-4 0  9999
2 42002  97.4945 254.4979 0009997 119.0848 241.1390 15.22641699 22349
FLOCK 3P-68             
1 42003U 17008BH  17193.18778245  .00001627  00000-0  72945-4 0  9995
2 42003  97.4943 254.4945 0010119 118.4783 241.7473 15.22627604 21987
FLOCK 3P-41             
1 42004U 17008BJ  17193.17727434  .00001305  00000-0  59038-4 0  9990
2 42004  97.4943 254.5035 0009824 120.9670 239.2533 15.22674618 22171
FLOCK 3P-45             
1 42005U 17008BK  17193.18200079  .00002529  00000-0  11172-3 0  9998
2 42005  97.4940 254.5031 0009924 119.8776 240.3447 15.22630577 22331
FLOCK 3P-48             
1 42006U 17008BL  17193.11460985  .00002621  00000-0  11555-3 0  9994
2 42006  97.4942 254.4419 0009788 121.4012 238.8183 15.22664234 22115
FLOCK 3P-43             
1 42007U 17008BM  17193.17803893  .00001276  00000-0  57848-4 0  9991
2 42007  97.4944 254.5055 0009648 120.7845 239.4342 15.22650710 22338
FLOCK 3P-42             
1 42008U 17008BN  17193.11201247  .00001483  00000-0  66689-4 0  9994
2 42008  97.4942 254.4380 0009689 120.7531 239.4661 15.22668309 22252
FLOCK 3P-61             
1 42009U 17008BP  17193.24144954  .00002743  00000-0  12080-3 0  9995
2 42009  97.4939 254.5734 0009667 122.4281 237.7892 15.22653151 22324
FLOCK 3P-40             
1 42010U 17008BQ  17193.23595579  .00001135  00000-0  51720-4 0  9998
2 42010  97.4938 254.5714 0009450 122.7344 237.4805 15.22692977 21583
FLOCK 3P-16             
1 42011U 17008BR  17193.22612259  .00001292  00000-0  58304-4 0  9992
2 42011  97.4939 254.5869 0009117 122.7967 237.4149 15.22804370 21524
FLOCK 3P-14             
1 42012U 17008BS  17193.16346947  .00001222  00000-0  55418-4 0  9990
2 42012  97.4943 254.5219 0009180 124.6243 235.5860 15.22723196 22130
FLOCK 3P-53             
1 42013U 17008BT  17193.16700386  .00001281  00000-0  58030-4 0  9990
2 42013  97.4935 254.5044 0009172 123.5249 236.6865 15.22688228 22136
FLOCK 3P-54             
1 42014U 17008BU  17193.16426240  .00001253  00000-0  56748-4 0  9998
2 42014  97.4940 254.5138 0009064 123.9724 236.2375 15.22712806 22344
PEASSS                  
1 42015U 17008BV  17193.21364805  .00001224  00000-0  55251-4 0  9999
2 42015  97.4933 254.5947 0008125 125.1888 235.0110 15.22886684 22156
AL-FARABI 1             
1 42016U 17008BW  17193.13966272  .00001677  00000-0  74269-4 0  9999
2 42016  97.4936 254.5446 0008027 125.8472 234.3512 15.23030604 22265
NAYIF-1 (EO-88)         
1 42017U 17008BX  17193.13829476  .00001679  00000-0  74317-4 0  9990
2 42017  97.4936 254.5457 0008005 126.1464 234.0514 15.23046278 22284
FLOCK 3P-23             
1 42018U 17008BY  17193.15773240  .00003474  00000-0  15288-3 0  9996
2 42018  97.4930 254.3678 0010774 102.9678 257.2762 15.22489501 21108
FLOCK 3P-76             
1 42019U 17008BZ  17193.13214818  .00002418  00000-0  10685-3 0  9999
2 42019  97.4964 254.4688 0010331 107.9533 252.2831 15.22651773 22163
FLOCK 3P-69             
1 42020U 17008CA  17193.26189734  .00002189  00000-0  97049-4 0  9998
2 42020  97.4964 254.6013 0010225 106.4461 253.7899 15.22646329 21075
FLOCK 3P-84             
1 42021U 17008CB  17193.13880286  .00001392  00000-0  62878-4 0  9992
2 42021  97.4963 254.4522 0010549 106.6121 253.6274 15.22623964 22170
FLOCK 3P-59             
1 42022U 17008CC  17193.13689407  .00002909  00000-0  12835-3 0  9997
2 42022  97.4941 254.4118 0010013 106.8075 253.4260 15.22544173 21192
FLOCK 3P-32             
1 42023U 17008CD  17193.27158011  .00003113  00000-0  13701-3 0  9996
2 42023  97.4941 254.5410 0009995 103.4999 256.7352 15.22570630 22358
FLOCK 3P-71             
1 42024U 17008CE  17193.14455965  .00003254  00000-0  14362-3 0  9991
2 42024  97.4965 254.4523 0010355 106.9096 253.3276 15.22440603 21204
FLOCK 3P-77             
1 42025U 17008CF  17193.13405611  .00004016  00000-0  17546-3 0  9998
2 42025  97.4960 254.4609 0010282 108.1870 252.0487 15.22643914 22175
FLOCK 3P-80             
1 42026U 17008CG  17193.11880493  .00001238  00000-0  56195-4 0  9999
2 42026  97.4965 254.4781 0009828 108.4243 251.8063 15.22667195 20311
FLOCK 3P-66             
1 42027U 17008CH  17193.18731591  .00003307  00000-0  14503-3 0  9996
2 42027  97.4941 254.5001 0010168 118.1716 242.0549 15.22645643 22298
FLOCK 3P-65             
1 42028U 17008CJ  17193.11985261  .00002300  00000-0  10181-3 0  9995
2 42028  97.4941 254.4365 0010027 118.4772 241.7475 15.22650945 22183
FLOCK 3P-50             
1 42029U 17008CK  17193.18286064  .00002815  00000-0  12399-3 0  9992
2 42029  97.4944 254.5090 0009882 120.2155 240.0061 15.22626110 21512
FLOCK 3P-52             
1 42030U 17008CL  17193.11855684  .00001795  00000-0  80145-4 0  9998
2 42030  97.4941 254.4354 0009952 119.7750 240.4477 15.22648558 22274
